{
  "norad_id": 64305,
  "name": "STARLINK-34383",
  "history": [
    {
      "epoch": "2026-04-10T11:16:35.726016Z",
      "apogee_km": 575.1623324056545,
      "perigee_km": 568.9002307839373,
      "latitude_deg": 1.9738322008409676e-05,
      "longitude_deg": 106.68200461630882,
      "height_km": 574.4458605219952,
      "semi_major_axis_km": 6950.168281594796,
      "eccentricity": 0.0004505,
      "inclination_deg": 70.0005,
      "raan_deg": 114.5341,
      "arg_perigee_deg": 270.2607,
      "mean_anomaly_deg": 89.8036,
      "mean_motion_rev_day": 14.98337958
    },
    {
      "epoch": "2026-04-11T17:43:09.018048Z",
      "apogee_km": 575.1559338814932,
      "perigee_km": 568.9327415117186,
      "latitude_deg": 8.550874375493342e-05,
      "longitude_deg": 5.594976827982366,
      "height_km": 574.5305706737819,
      "semi_major_axis_km": 6950.181337696606,
      "eccentricity": 0.0004477,
      "inclination_deg": 70.0006,
      "raan_deg": 111.336,
      "arg_perigee_deg": 268.9426,
      "mean_anomaly_deg": 91.1221,
      "mean_motion_rev_day": 14.98333736
    },
    {
      "epoch": "2026-04-13T06:34:14.459808Z",
      "apogee_km": 575.198032805024,
      "perigee_km": 568.8957450582184,
      "latitude_deg": 4.516727431536482e-05,
      "longitude_deg": 167.43674966666373,
      "height_km": 574.5169937018627,
      "semi_major_axis_km": 6950.1838889316205,
      "eccentricity": 0.00045339,
      "inclination_deg": 69.9997,
      "raan_deg": 107.4639,
      "arg_perigee_deg": 269.2488,
      "mean_anomaly_deg": 90.8152,
      "mean_motion_rev_day": 14.98332911
    },
    {
      "epoch": "2026-04-14T09:48:31.425984Z",
      "apogee_km": 575.1915423987311,
      "perigee_km": 568.883841855145,
      "latitude_deg": -1.0801142435128462e-05,
      "longitude_deg": 114.88571124422293,
      "height_km": 574.5216905259897,
      "semi_major_axis_km": 6950.174692126938,
      "eccentricity": 0.00045378,
      "inclination_deg": 69.9996,
      "raan_deg": 104.6022,
      "arg_perigee_deg": 268.9971,
      "mean_anomaly_deg": 91.0668,
      "mean_motion_rev_day": 14.98335885
    },
    {
      "epoch": "2026-04-15T08:14:24.281376Z",
      "apogee_km": 575.1886746015189,
      "perigee_km": 568.8950096528179,
      "latitude_deg": -3.430153789932995e-05,
      "longitude_deg": 135.13755075890708,
      "height_km": 574.5502853022326,
      "semi_major_axis_km": 6950.178842127168,
      "eccentricity": 0.00045277,
      "inclination_deg": 69.9996,
      "raan_deg": 102.2455,
      "arg_perigee_deg": 268.5496,
      "mean_anomaly_deg": 91.5144,
      "mean_motion_rev_day": 14.98334543
    },
    {
      "epoch": "2026-04-16T16:17:05.532000Z",
      "apogee_km": 575.1541905202776,
      "perigee_km": 568.9171055859151,
      "latitude_deg": -2.3266167710930928e-05,
      "longitude_deg": 9.782846913549255,
      "height_km": 574.5836604040657,
      "semi_major_axis_km": 6950.172648053096,
      "eccentricity": 0.0004487,
      "inclination_deg": 69.9996,
      "raan_deg": 98.8787,
      "arg_perigee_deg": 267.8086,
      "mean_anomaly_deg": 92.2559,
      "mean_motion_rev_day": 14.98336546
    },
    {
      "epoch": "2026-04-17T03:30:01.671552Z",
      "apogee_km": 575.2633890016114,
      "perigee_km": 568.7790303951278,
      "latitude_deg": 6.326033846346459e-07,
      "longitude_deg": -160.0916665504719,
      "height_km": 574.3009281838991,
      "semi_major_axis_km": 6950.158209698369,
      "eccentricity": 0.00046649,
      "inclination_deg": 69.9994,
      "raan_deg": 97.6987,
      "arg_perigee_deg": 272.6364,
      "mean_anomaly_deg": 87.4261,
      "mean_motion_rev_day": 14.98341215
    },
    {
      "epoch": "2026-04-18T05:08:10.379328Z",
      "apogee_km": 575.2456674126488,
      "perigee_km": 568.8357964975767,
      "latitude_deg": 9.148622200863724e-06,
      "longitude_deg": 171.6264321882136,
      "height_km": 574.5738950139122,
      "semi_major_axis_km": 6950.177731955113,
      "eccentricity": 0.00046113,
      "inclination_deg": 69.9998,
      "raan_deg": 95.0059,
      "arg_perigee_deg": 268.1352,
      "mean_anomaly_deg": 91.9279,
      "mean_motion_rev_day": 14.98334902
    },
    {
      "epoch": "2026-04-19T16:23:08.513088Z",
      "apogee_km": 575.0969866977448,
      "perigee_km": 569.0350196383815,
      "latitude_deg": 3.939103235173639e-05,
      "longitude_deg": -2.2659264994950283,
      "height_km": 574.5957256344758,
      "semi_major_axis_km": 6950.203003168063,
      "eccentricity": 0.0004361,
      "inclination_deg": 70.0004,
      "raan_deg": 91.3034,
      "arg_perigee_deg": 268.0901,
      "mean_anomaly_deg": 91.9759,
      "mean_motion_rev_day": 14.9832673
    },
    {
      "epoch": "2026-04-20T08:24:29.234304Z",
      "apogee_km": 575.0700287139416,
      "perigee_km": 569.0474061169725,
      "latitude_deg": 1.3356251023582773e-05,
      "longitude_deg": 115.05670698983992,
      "height_km": 574.592974113362,
      "semi_major_axis_km": 6950.195717415457,
      "eccentricity": 0.00043327,
      "inclination_deg": 70.0008,
      "raan_deg": 89.6204,
      "arg_perigee_deg": 267.9915,
      "mean_anomaly_deg": 92.0748,
      "mean_motion_rev_day": 14.98329086
    },
    {
      "epoch": "2026-04-21T08:26:30.132960Z",
      "apogee_km": 575.0459058200422,
      "perigee_km": 569.0260829826711,
      "latitude_deg": -2.72700949873116e-05,
      "longitude_deg": 111.04112134702461,
      "height_km": 574.5991788074191,
      "semi_major_axis_km": 6950.172994401357,
      "eccentricity": 0.00043307,
      "inclination_deg": 70.0008,
      "raan_deg": 87.0956,
      "arg_perigee_deg": 267.4397,
      "mean_anomaly_deg": 92.6266,
      "mean_motion_rev_day": 14.98336434
    },
    {
      "epoch": "2026-04-22T14:53:03.038784Z",
      "apogee_km": 574.705920800564,
      "perigee_km": 569.3501236344428,
      "latitude_deg": 3.475548390859345e-05,
      "longitude_deg": 9.952705017421222,
      "height_km": 574.2621795939991,
      "semi_major_axis_km": 6950.165022217503,
      "eccentricity": 0.0003853,
      "inclination_deg": 70.0019,
      "raan_deg": 83.8945,
      "arg_perigee_deg": 274.1586,
      "mean_anomaly_deg": 85.9133,
      "mean_motion_rev_day": 14.98339012
    },
    {
      "epoch": "2026-04-23T05:18:15.558624Z",
      "apogee_km": 574.8850262445585,
      "perigee_km": 569.1767143693187,
      "latitude_deg": -3.594012735633058e-05,
      "longitude_deg": 151.54679782668688,
      "height_km": 574.6349609184131,
      "semi_major_axis_km": 6950.167870306938,
      "eccentricity": 0.00041066,
      "inclination_deg": 70.0017,
      "raan_deg": 82.383,
      "arg_perigee_deg": 266.4752,
      "mean_anomaly_deg": 93.5937,
      "mean_motion_rev_day": 14.98338091
    },
    {
      "epoch": "2026-04-24T14:57:04.841280Z",
      "apogee_km": 574.8855811084632,
      "perigee_km": 569.2031128391773,
      "latitude_deg": 3.291868073323607e-05,
      "longitude_deg": 1.9243422730654036,
      "height_km": 574.6615955072996,
      "semi_major_axis_km": 6950.18134697382,
      "eccentricity": 0.0004088,
      "inclination_deg": 70.0011,
      "raan_deg": 78.8477,
      "arg_perigee_deg": 266.1919,
      "mean_anomaly_deg": 93.8773,
      "mean_motion_rev_day": 14.98333733
    },
    {
      "epoch": "2026-04-25T14:59:05.758080Z",
      "apogee_km": 574.8616771241059,
      "perigee_km": 569.2209124200681,
      "latitude_deg": -3.30260260549981e-05,
      "longitude_deg": -2.0924263593650694,
      "height_km": 574.6798096143875,
      "semi_major_axis_km": 6950.178294772087,
      "eccentricity": 0.0004058,
      "inclination_deg": 70.0008,
      "raan_deg": 76.3218,
      "arg_perigee_deg": 265.7298,
      "mean_anomaly_deg": 94.3397,
      "mean_motion_rev_day": 14.9833472
    },
    {
      "epoch": "2026-04-26T23:01:46.886880Z",
      "apogee_km": 574.7675219818775,
      "perigee_km": 569.3126060114282,
      "latitude_deg": -1.156709418873525e-05,
      "longitude_deg": -127.44651952859746,
      "height_km": 574.7077942830877,
      "semi_major_axis_km": 6950.177063996653,
      "eccentricity": 0.00039243,
      "inclination_deg": 70.001,
      "raan_deg": 72.9551,
      "arg_perigee_deg": 264.9661,
      "mean_anomaly_deg": 95.105,
      "mean_motion_rev_day": 14.98335118
    },
    {
      "epoch": "2026-04-27T19:51:31.774176Z",
      "apogee_km": 574.6225775902367,
      "perigee_km": 569.4460899808328,
      "latitude_deg": 4.149697100405306e-05,
      "longitude_deg": -82.92885221215792,
      "height_km": 574.8646560743417,
      "semi_major_axis_km": 6950.171333785534,
      "eccentricity": 0.0003724,
      "inclination_deg": 70.0012,
      "raan_deg": 70.7652,
      "arg_perigee_deg": 261.063,
      "mean_anomaly_deg": 99.0108,
      "mean_motion_rev_day": 14.98336971
    },
    {
      "epoch": "2026-04-28T13:29:00.511008Z",
      "apogee_km": 574.8133464522689,
      "perigee_km": 569.2601576243896,
      "latitude_deg": -2.6093818700714826e-05,
      "longitude_deg": 10.126268443303811,
      "height_km": 574.4254142563846,
      "semi_major_axis_km": 6950.1737520383285,
      "eccentricity": 0.0003995,
      "inclination_deg": 70.0016,
      "raan_deg": 68.9139,
      "arg_perigee_deg": 270.8218,
      "mean_anomaly_deg": 89.2483,
      "mean_motion_rev_day": 14.98336189
    },
    {
      "epoch": "2026-04-29T19:55:33.752928Z",
      "apogee_km": 574.4518171493519,
      "perigee_km": 569.5922659475018,
      "latitude_deg": 3.4061472634521084e-05,
      "longitude_deg": -90.96004907166213,
      "height_km": 574.5260351710095,
      "semi_major_axis_km": 6950.159041548426,
      "eccentricity": 0.0003496,
      "inclination_deg": 70.0024,
      "raan_deg": 65.7163,
      "arg_perigee_deg": 268.2105,
      "mean_anomaly_deg": 91.8654,
      "mean_motion_rev_day": 14.98340946
    }
  ]
}